satname,norad_id,inclination_deg,eccentricity,mean_motion_rev_per_day,perigee_km,apogee_km,l1,l2
STARLINK-1225,45187,53.1578,0.0001873,15.31202823,470.9393826680016,473.50552731984135,1 45187U 20012K   26112.49694054  .00027912  00000+0  92197-3 0  9994,2 45187  53.1578 196.1314 0001873  29.3743 330.7363 15.31202823341648
STARLINK-1230,45189,53.1566,0.0001802,15.31214779,470.9523673748963,473.4212240708739,1 45189U 20012M   26112.50641066  .00026235  00000+0  86716-3 0  9990,2 45189  53.1566 196.1443 0001802  32.9068 327.2045 15.31214779338874
STARLINK-1234,45190,53.0407,0.0009135,15.68435666,357.2175033555386,369.53424737883415,1 45190U 20012N   26111.98628213  .00052599  00000+0  45875-3 0  9995,2 45190  53.0407 112.4777 0009135  63.0813 297.1135 15.68435666342667
STARLINK-1269,45197,53.1585,0.000147,15.3126193,471.0391934870222,473.0531473391229,1 45197U 20012V   26112.50267426  .00027260  00000+0  89912-3 0  9993,2 45197  53.1585 196.0165 0001470  14.1239 345.9803 15.31261930341624
STARLINK-1154,45198,53.0425,0.0003894,15.5301437,405.28826493857014,410.57325450984354,1 45198U 20012W   26112.34572030  .00048315  00000+0  76358-3 0  9990,2 45198  53.0425 160.5904 0003894 321.6725  38.4007 15.53014370342069
STARLINK-1199,45201,53.1548,0.0001804,15.31155744,471.127044418472,473.598704773226,1 45201U 20012Z   26112.21147639  .00024930  00000+0  82627-3 0  9997,2 45201  53.1548 181.6219 0001804  31.3265 328.7843 15.31155744341820
STARLINK-1209,45206,53.043,0.0012211,15.58675182,383.22393414395356,399.75671799968495,1 45206U 20012AE  26112.31237940  .00066819  00000+0  85031-3 0  9992,2 45206  53.0430 122.4819 0012211  49.8125 310.3953 15.58675182341704
STARLINK-1231,45212,53.037,0.0003655,15.24717789,489.1220888753942,494.14389073794337,1 45212U 20012AL  26112.38406497  .00023382  00000+0  94316-3 0  9995,2 45212  53.0370 174.4989 0003655 306.1968  53.8690 15.24717789341884
STARLINK-1271,45217,53.1582,0.0002154,15.31066645,471.15298941267247,474.1042992522516,1 45217U 20012AR  26112.53693270  .00017908  00000+0  59908-3 0  9999,2 45217  53.1582 180.2458 0002154  28.4390 331.6728 15.31066645341871
STARLINK-1191,45222,53.1568,0.0005417,15.34455787,458.83184116891607,466.24302785126474,1 45222U 20012AW  26112.82585419  .00029382  00000+0  87549-3 0  9993,2 45222  53.1568 153.1440 0005417  23.8507 336.2746 15.34455787342284
STARLINK-1212,45223,53.0434,0.0006456,15.6059364,381.5743060889072,390.3080838542546,1 45223U 20012AX  26112.77020353  .00076764  00000+0  90831-3 0  9993,2 45223  53.0434 136.4835 0006456 356.9449   3.1523 15.60593640342505
STARLINK-1215,45225,53.1555,0.0001603,15.31263999,470.94191652457266,473.1380832707391,1 45225U 20012AZ  26112.80289493  .00033730  00000+0  11087-2 0  9992,2 45225  53.1555 153.3384 0001603  30.8508 329.2587 15.31263999342233
STARLINK-1221,45227,53.0665,0.000368,15.43402149,433.5694603095426,438.5847218805884,1 45227U 20012BB  26112.12203506  .00014379  00000+0  32547-3 0  9993,2 45227  53.0665  63.5509 0003680 115.6888 244.4498 15.43402149343412
STARLINK-1222,45228,53.0535,6.95e-05,15.52144231,409.9949148210753,410.938530738541,1 45228U 20012BC  26112.76338731  .00022628  00000+0  37427-3 0  9991,2 45228  53.0535 131.0612 0000695   5.3561 354.7456 15.52144231342469
STARLINK-1226,45229,53.158,0.0003063,15.39253344,446.22505250534414,450.406937610117,1 45229U 20012BD  26112.82142227  .00033260  00000+0  84788-3 0  9998,2 45229  53.1580 152.0283 0003063  40.1466 319.9765 15.39253344342198
STARLINK-1227,45230,53.1562,0.000388,15.39280665,445.5865863460158,450.8838511877793,1 45230U 20012BE  26112.38027722  .00036628  00000+0  93143-3 0  9999,2 45230  53.1562 154.2613 0003880  33.4519 326.6730 15.39280665342241
STARLINK-1246,45235,53.1547,0.0002115,15.31383298,470.2354929151479,473.13296729548347,1 45235U 20012BK  26112.51260102  .00053529  00000+0  17414-2 0  9995,2 45235  53.1547 195.6291 0002115  45.1732 314.9441 15.31383298341681
STARLINK-1270,45237,53.0442,0.00053,15.54320209,400.5348168768269,407.72401927999,1 45237U 20012BM  26112.79228468  .00053094  00000+0  79897-3 0  9997,2 45237  53.0442 135.6590 0005300  15.8122 344.3052 15.54320209342514
STARLINK-1279,45360,53.0401,0.0005434,15.66666787,364.78325980926365,372.11544985969795,1 45360U 20019A   26112.65738441  .00054862  00000+0  51440-3 0  9991,2 45360  53.0401 243.8780 0005434 315.2528  44.8048 15.66666787337545
STARLINK-1301,45361,53.0404,0.0003929,15.70521945,354.7578815286179,360.05066986305974,1 45361U 20019B   26112.64543220  .00048671  00000+0  39070-3 0  9996,2 45361  53.0404 247.4178 0003929 346.9088  13.1826 15.70521945337509
STARLINK-1262,45366,53.1573,6.5e-05,15.30276193,474.54212719689895,475.43303339233717,1 45366U 20019G   26112.84380197  .00027682  00000+0  94106-3 0  9995,2 45366  53.1573 320.2133 0000650 154.4736 205.6297 15.30276193336511
STARLINK-1273,45367,53.0492,0.0002772,15.50586248,413.13022526220357,416.8963477810512,1 45367U 20019H   26111.93366377  .00105390  00000+0  17945-2 0  9997,2 45367  53.0492 308.0708 0002772 177.8157 182.2864 15.50586248336591
STARLINK-1277,45369,53.0482,0.0004892,15.56496341,394.49164424467745,401.12122730223837,1 45369U 20019K   26112.78207310  .00064609  00000+0  89487-3 0  9992,2 45369  53.0482 300.1343 0004892 197.8644 162.2195 15.56496341336784
STARLINK-1281,45370,53.16,6e-06,15.31237256,472.0786568441499,472.1608599252495,1 45370U 20019L   26112.81851433  .00031907  00000+0  10505-2 0  9998,2 45370  53.1600 320.2540 0000060 186.1137 173.9863 15.31237256336515
STARLINK-1300,45374,53.1607,2.86e-05,15.31289118,471.7691740328446,472.1609998722197,1 45374U 20019Q   26111.86102432  .00033055  00000+0  10860-2 0  9994,2 45374  53.1607 324.7091 0000286  63.1935 296.9095 15.31289118336366
STARLINK-1302,45375,53.0489,0.0001614,15.61274094,382.88431042776665,385.0671204123046,1 45375U 20019R   26112.78267199  .00078716  00000+0  90774-3 0  9995,2 45375  53.0489 297.7104 0001614 179.3406 180.7610 15.61274094336810
STARLINK-1304,45376,53.047,0.0002582,15.55519117,398.89375873289373,402.3943212619479,1 45376U 20019S   26111.78999721  .00053653  00000+0  77290-3 0  9999,2 45376  53.0470 302.0419 0002582 201.9088 158.1812 15.55519117336660
STARLINK-1305,45377,53.041,0.0006743,15.61854608,377.74147634420024,386.858601735049,1 45377U 20019T   26112.73020463  .00092042  00000+0  10343-2 0  9994,2 45377  53.0410 278.5112 0006743 269.9386  90.0855 15.61854608337082
STARLINK-1319,45379,53.043,0.0001554,15.7062688,356.0576107993538,358.15092378522786,1 45379U 20019V   26112.77829051  .00050677  00000+0  40485-3 0  9999,2 45379  53.0430 272.3547 0001554 256.0079 104.0765 15.70626880337176
STARLINK-1266,45383,53.0476,0.0003312,15.52338512,407.65210016177116,412.14849606804273,1 45383U 20019Z   26112.79078681  .00044587  00000+0  72299-3 0  9992,2 45383  53.0476 281.6541 0003312 207.8608 152.2224 15.52338512337036
STARLINK-1267,45384,53.0482,0.0003185,15.57695627,392.1710465163824,396.48510677020477,1 45384U 20019AA  26112.74354262  .00067362  00000+0  89190-3 0  9994,2 45384  53.0482 274.3908 0003185 317.2040  42.8723 15.57695627337131
STARLINK-1272,45386,53.0417,0.0008703,15.64360672,369.20076052276454,380.9554066972969,1 45386U 20019AC  26112.66756375 -.00049421  00000+0 -50295-3 0  9990,2 45386  53.0417 255.3765 0008703 297.4548  62.5580 15.64360672337399
STARLINK-1274,45387,53.0251,0.000619,15.54216149,400.23373476901634,408.63055537061246,1 45387U 20019AD  26112.67489961  .00058826  00000+0  88697-3 0  9990,2 45387  53.0251 251.5114 0006190 332.4631  27.6050 15.54216149337441
STARLINK-1280,45388,53.0403,0.0002294,15.71159673,354.03681619686904,357.1262462589966,1 45388U 20019AE  26111.85518822  .00066044  00000+0  51362-3 0  9999,2 45388  53.0403 269.5460 0002294 290.5838  69.4933 15.71159673337113
STARLINK-1283,45389,53.0421,0.0001356,15.66049117,369.30812113465527,371.13827642056276,1 45389U 20019AF  26112.65867101  .00038847  00000+0  37589-3 0  9991,2 45389  53.0421 254.9366 0001356 353.4045   6.6951 15.66049117337404
STARLINK-1284,45390,53.0474,0.0003798,15.59522247,386.4686183286103,391.60896505998153,1 45390U 20019AG  26112.74666174  .00072657  00000+0  89687-3 0  9993,2 45390  53.0474 277.7266 0003798 224.7221 135.3485 15.59522247337082
STARLINK-1297,45395,53.044,0.0004477,15.62940529,376.14302537373624,382.19351651334,1 45395U 20019AM  26112.80519632  .00093040  00000+0  10026-2 0  9990,2 45395  53.0440 276.2368 0004477 227.8238 132.2395 15.62940529336293
STARLINK-1307,45397,53.054,0.0001066,15.53598479,405.50652685315436,406.9529538421966,1 45397U 20019AP  26112.73352102  .00025303  00000+0  39624-3 0  9994,2 45397  53.0540 278.8281 0001066 114.5595 245.5525 15.53598479336899
STARLINK-1255,45399,53.0388,0.0003832,15.60058916,384.8941514476237,390.07932548078224,1 45399U 20019AR  26112.36378786  .00088125  00000+0  10625-2 0  9991,2 45399  53.0388 251.2084 0003832 312.3062  47.7625 15.60058916337234
STARLINK-1260,45404,53.1602,0.0001885,15.33578905,463.85483777918944,466.43475501643115,1 45404U 20019AW  26112.74451966  .00031513  00000+0  96456-3 0  9998,2 45404  53.1602 284.1701 0001885 272.6857  87.3930 15.33578905336725
STARLINK-1263,45405,53.1583,9.65e-05,15.31196924,471.5789877943498,472.9011105648415,1 45405U 20019AX  26112.76859005  .00034995  00000+0  11520-2 0  9992,2 45405  53.1583 284.4742 0000965 348.0113  12.0865 15.31196924336720
STARLINK-1265,45406,53.1592,0.0001573,15.33741649,463.58432594953774,465.7370701053369,1 45406U 20019AY  26112.74641227  .00038023  00000+0  11545-2 0  9999,2 45406  53.1592 284.2513 0001573 257.5117 102.5709 15.33741649336723
STARLINK-1278,45408,53.0428,0.0003836,15.64226387,372.87389448683734,378.0552576159844,1 45408U 20019BA  26112.72948659  .00100797  00000+0  10314-2 0  9999,2 45408  53.0428 275.8431 0003836 266.7162  93.3414 15.64226387336836
